{
 "type": "FeatureCollection",
 "properties": {
  "attribution": "Map data (c) OpenStreetMap contributors, ODbL 1.0 (https://www.openstreetmap.org/copyright). Derived from OSM way 154005077 (Cheatham Lake relation 2690112, west channel inner bank) and way 379808068 (river relation 5656572, east channel inner bank); Overpass API, OSM base 2026-10-06T04:37Z.",
  "license": "ODbL-1.0",
  "north_line_lat": 36.2055,
  "order": "west crossing -> south down west channel -> south tip -> north up east channel -> east crossing"
 },
 "features": [
  {
   "type": "Feature",
   "properties": {
    "name": "bells_bend_inner_bank_50pt",
    "points": 51,
    "note": "resampled at equal arc length (~385 m) from full-res bank",
    "attribution": "Map data (c) OpenStreetMap contributors, ODbL 1.0 (https://www.openstreetmap.org/copyright). Derived from OSM way 154005077 (Cheatham Lake relation 2690112, west channel inner bank) and way 379808068 (river relation 5656572, east channel inner bank); Overpass API, OSM base 2026-10-06T04:37Z."
   },
   "geometry": {
    "type": "LineString",
    "coordinates": [
     [
      -86.950186,
      36.2055
     ],
     [
      -86.946631,
      36.20377
     ],
     [
      -86.943986,
      36.201157
     ],
     [
      -86.941182,
      36.198536
     ],
     [
      -86.940239,
      36.195235
     ],
     [
      -86.940284,
      36.191768
     ],
     [
      -86.940858,
      36.188334
     ],
     [
      -86.941179,
      36.184875
     ],
     [
      -86.941225,
      36.1814
     ],
     [
      -86.940532,
      36.177986
     ],
     [
      -86.940433,
      36.174512
     ],
     [
      -86.94053,
      36.171039
     ],
     [
      -86.940629,
      36.167566
     ],
     [
      -86.940424,
      36.164095
     ],
     [
      -86.939666,
      36.160676
     ],
     [
      -86.939279,
      36.157227
     ],
     [
      -86.938421,
      36.153873
     ],
     [
      -86.935506,
      36.151333
     ],
     [
      -86.932739,
      36.148683
     ],
     [
      -86.930321,
      36.145812
     ],
     [
      -86.927906,
      36.14294
     ],
     [
      -86.925014,
      36.140399
     ],
     [
      -86.921318,
      36.138761
     ],
     [
      -86.917131,
      36.138067
     ],
     [
      -86.912957,
      36.137309
     ],
     [
      -86.908795,
      36.136495
     ],
     [
      -86.904541,
      36.136536
     ],
     [
      -86.900408,
      36.137439
     ],
     [
      -86.896979,
      36.139481
     ],
     [
      -86.894097,
      36.142042
     ],
     [
      -86.892279,
      36.145167
     ],
     [
      -86.89091,
      36.148459
     ],
     [
      -86.89011,
      36.151872
     ],
     [
      -86.889383,
      36.155297
     ],
     [
      -86.888853,
      36.158738
     ],
     [
      -86.889597,
      36.162142
     ],
     [
      -86.891391,
      36.165284
     ],
     [
      -86.893887,
      36.168103
     ],
     [
      -86.896561,
      36.170793
     ],
     [
      -86.89968,
      36.173177
     ],
     [
      -86.903054,
      36.175322
     ],
     [
      -86.905693,
      36.178015
     ],
     [
      -86.907707,
      36.181081
     ],
     [
      -86.910305,
      36.183828
     ],
     [
      -86.91257,
      36.186768
     ],
     [
      -86.913842,
      36.190042
     ],
     [
      -86.913686,
      36.193499
     ],
     [
      -86.912378,
      36.196796
     ],
     [
      -86.910376,
      36.199868
     ],
     [
      -86.908139,
      36.20283
     ],
     [
      -86.905449,
      36.2055
     ]
    ]
   }
  },
  {
   "type": "Feature",
   "properties": {
    "name": "bells_bend_inner_bank_full",
    "points": 84,
    "attribution": "Map data (c) OpenStreetMap contributors, ODbL 1.0 (https://www.openstreetmap.org/copyright). Derived from OSM way 154005077 (Cheatham Lake relation 2690112, west channel inner bank) and way 379808068 (river relation 5656572, east channel inner bank); Overpass API, OSM base 2026-10-06T04:37Z."
   },
   "geometry": {
    "type": "LineString",
    "coordinates": [
     [
      -86.9501855,
      36.2055
     ],
     [
      -86.9472974,
      36.2045536
     ],
     [
      -86.9463764,
      36.2034694
     ],
     [
      -86.9457001,
      36.2029298
     ],
     [
      -86.9455121,
      36.2028029
     ],
     [
      -86.945284,
      36.2026702
     ],
     [
      -86.9448588,
      36.2022229
     ],
     [
      -86.9448876,
      36.2020035
     ],
     [
      -86.9447877,
      36.2018102
     ],
     [
      -86.9425748,
      36.2000068
     ],
     [
      -86.9406059,
      36.1979277
     ],
     [
      -86.940129,
      36.1944255
     ],
     [
      -86.9403674,
      36.1903457
     ],
     [
      -86.94104,
      36.18759
     ],
     [
      -86.9411782,
      36.1849186
     ],
     [
      -86.9412259,
      36.1813003
     ],
     [
      -86.9405582,
      36.1789136
     ],
     [
      -86.9404151,
      36.1738707
     ],
     [
      -86.9406536,
      36.1679804
     ],
     [
      -86.9404151,
      36.1639378
     ],
     [
      -86.9397304,
      36.1609576
     ],
     [
      -86.9394519,
      36.1597452
     ],
     [
      -86.9393182,
      36.1591634
     ],
     [
      -86.9393118,
      36.1588499
     ],
     [
      -86.9392553,
      36.1560851
     ],
     [
      -86.9386345,
      36.1540983
     ],
     [
      -86.9376075,
      36.153018
     ],
     [
      -86.9362703,
      36.1519501
     ],
     [
      -86.9347199,
      36.1506973
     ],
     [
      -86.9327248,
      36.1486686
     ],
     [
      -86.9277206,
      36.14272
     ],
     [
      -86.927072,
      36.1419491
     ],
     [
      -86.9238543,
      36.139525
     ],
     [
      -86.9203197,
      36.1384605
     ],
     [
      -86.9147814,
      36.1377767
     ],
     [
      -86.9110197,
      36.1368124
     ],
     [
      -86.9074161,
      36.1362985
     ],
     [
      -86.9043461,
      36.1365522
     ],
     [
      -86.9028214,
      36.1368752
     ],
     [
      -86.9021757,
      36.137012
     ],
     [
      -86.900639,
      36.1373375
     ],
     [
      -86.8986601,
      36.138207
     ],
     [
      -86.8970527,
      36.139425
     ],
     [
      -86.8955383,
      36.1405725
     ],
     [
      -86.8943627,
      36.1417713
     ],
     [
      -86.8936111,
      36.1425377
     ],
     [
      -86.8926269,
      36.1444803
     ],
     [
      -86.8920664,
      36.1455866
     ],
     [
      -86.8908668,
      36.1485658
     ],
     [
      -86.8895875,
      36.1541524
     ],
     [
      -86.8892077,
      36.1562811
     ],
     [
      -86.8888198,
      36.158455
     ],
     [
      -86.8891067,
      36.1608774
     ],
     [
      -86.8900097,
      36.1632072
     ],
     [
      -86.8917528,
      36.1658284
     ],
     [
      -86.893808,
      36.1680191
     ],
     [
      -86.8942901,
      36.1685329
     ],
     [
      -86.8949758,
      36.1692638
     ],
     [
      -86.8950117,
      36.1693698
     ],
     [
      -86.8951775,
      36.1694489
     ],
     [
      -86.8962071,
      36.1704963
     ],
     [
      -86.8973526,
      36.171458
     ],
     [
      -86.9000509,
      36.1734512
     ],
     [
      -86.9039159,
      36.1758586
     ],
     [
      -86.9041112,
      36.1760903
     ],
     [
      -86.9042736,
      36.1762829
     ],
     [
      -86.9055604,
      36.1778093
     ],
     [
      -86.907571,
      36.1809311
     ],
     [
      -86.9088348,
      36.182323
     ],
     [
      -86.9089875,
      36.182385
     ],
     [
      -86.9115132,
      36.185152
     ],
     [
      -86.9127605,
      36.1870589
     ],
     [
      -86.913728,
      36.1889047
     ],
     [
      -86.9139766,
      36.191389
     ],
     [
      -86.9136427,
      36.1938137
     ],
     [
      -86.9130993,
      36.195376
     ],
     [
      -86.9123367,
      36.1968784
     ],
     [
      -86.9117322,
      36.1979038
     ],
     [
      -86.9100574,
      36.2003299
     ],
     [
      -86.9088468,
      36.2020125
     ],
     [
      -86.9077997,
      36.2032215
     ],
     [
      -86.9077472,
      36.2033945
     ],
     [
      -86.9065749,
      36.2046239
     ],
     [
      -86.9054486,
      36.2055
     ]
    ]
   }
  },
  {
   "type": "Feature",
   "properties": {
    "name": "bells_bend_playable_polygon",
    "area_km2": 25.69,
    "area_acres": 6349,
    "note": "inner bank closed by straight north line at lat 36.2055",
    "attribution": "Map data (c) OpenStreetMap contributors, ODbL 1.0 (https://www.openstreetmap.org/copyright). Derived from OSM way 154005077 (Cheatham Lake relation 2690112, west channel inner bank) and way 379808068 (river relation 5656572, east channel inner bank); Overpass API, OSM base 2026-10-06T04:37Z."
   },
   "geometry": {
    "type": "Polygon",
    "coordinates": [
     [
      [
       -86.9501855,
       36.2055
      ],
      [
       -86.9472974,
       36.2045536
      ],
      [
       -86.9463764,
       36.2034694
      ],
      [
       -86.9457001,
       36.2029298
      ],
      [
       -86.9455121,
       36.2028029
      ],
      [
       -86.945284,
       36.2026702
      ],
      [
       -86.9448588,
       36.2022229
      ],
      [
       -86.9448876,
       36.2020035
      ],
      [
       -86.9447877,
       36.2018102
      ],
      [
       -86.9425748,
       36.2000068
      ],
      [
       -86.9406059,
       36.1979277
      ],
      [
       -86.940129,
       36.1944255
      ],
      [
       -86.9403674,
       36.1903457
      ],
      [
       -86.94104,
       36.18759
      ],
      [
       -86.9411782,
       36.1849186
      ],
      [
       -86.9412259,
       36.1813003
      ],
      [
       -86.9405582,
       36.1789136
      ],
      [
       -86.9404151,
       36.1738707
      ],
      [
       -86.9406536,
       36.1679804
      ],
      [
       -86.9404151,
       36.1639378
      ],
      [
       -86.9397304,
       36.1609576
      ],
      [
       -86.9394519,
       36.1597452
      ],
      [
       -86.9393182,
       36.1591634
      ],
      [
       -86.9393118,
       36.1588499
      ],
      [
       -86.9392553,
       36.1560851
      ],
      [
       -86.9386345,
       36.1540983
      ],
      [
       -86.9376075,
       36.153018
      ],
      [
       -86.9362703,
       36.1519501
      ],
      [
       -86.9347199,
       36.1506973
      ],
      [
       -86.9327248,
       36.1486686
      ],
      [
       -86.9277206,
       36.14272
      ],
      [
       -86.927072,
       36.1419491
      ],
      [
       -86.9238543,
       36.139525
      ],
      [
       -86.9203197,
       36.1384605
      ],
      [
       -86.9147814,
       36.1377767
      ],
      [
       -86.9110197,
       36.1368124
      ],
      [
       -86.9074161,
       36.1362985
      ],
      [
       -86.9043461,
       36.1365522
      ],
      [
       -86.9028214,
       36.1368752
      ],
      [
       -86.9021757,
       36.137012
      ],
      [
       -86.900639,
       36.1373375
      ],
      [
       -86.8986601,
       36.138207
      ],
      [
       -86.8970527,
       36.139425
      ],
      [
       -86.8955383,
       36.1405725
      ],
      [
       -86.8943627,
       36.1417713
      ],
      [
       -86.8936111,
       36.1425377
      ],
      [
       -86.8926269,
       36.1444803
      ],
      [
       -86.8920664,
       36.1455866
      ],
      [
       -86.8908668,
       36.1485658
      ],
      [
       -86.8895875,
       36.1541524
      ],
      [
       -86.8892077,
       36.1562811
      ],
      [
       -86.8888198,
       36.158455
      ],
      [
       -86.8891067,
       36.1608774
      ],
      [
       -86.8900097,
       36.1632072
      ],
      [
       -86.8917528,
       36.1658284
      ],
      [
       -86.893808,
       36.1680191
      ],
      [
       -86.8942901,
       36.1685329
      ],
      [
       -86.8949758,
       36.1692638
      ],
      [
       -86.8950117,
       36.1693698
      ],
      [
       -86.8951775,
       36.1694489
      ],
      [
       -86.8962071,
       36.1704963
      ],
      [
       -86.8973526,
       36.171458
      ],
      [
       -86.9000509,
       36.1734512
      ],
      [
       -86.9039159,
       36.1758586
      ],
      [
       -86.9041112,
       36.1760903
      ],
      [
       -86.9042736,
       36.1762829
      ],
      [
       -86.9055604,
       36.1778093
      ],
      [
       -86.907571,
       36.1809311
      ],
      [
       -86.9088348,
       36.182323
      ],
      [
       -86.9089875,
       36.182385
      ],
      [
       -86.9115132,
       36.185152
      ],
      [
       -86.9127605,
       36.1870589
      ],
      [
       -86.913728,
       36.1889047
      ],
      [
       -86.9139766,
       36.191389
      ],
      [
       -86.9136427,
       36.1938137
      ],
      [
       -86.9130993,
       36.195376
      ],
      [
       -86.9123367,
       36.1968784
      ],
      [
       -86.9117322,
       36.1979038
      ],
      [
       -86.9100574,
       36.2003299
      ],
      [
       -86.9088468,
       36.2020125
      ],
      [
       -86.9077997,
       36.2032215
      ],
      [
       -86.9077472,
       36.2033945
      ],
      [
       -86.9065749,
       36.2046239
      ],
      [
       -86.9054486,
       36.2055
      ],
      [
       -86.9501855,
       36.2055
      ]
     ]
    ]
   }
  },
  {
   "type": "Feature",
   "properties": {
    "name": "north_line",
    "lat": 36.2055,
    "estimated_from": "noah-boundary-sketch.png calibrated to OSM river apex and TN-12"
   },
   "geometry": {
    "type": "LineString",
    "coordinates": [
     [
      -86.950186,
      36.2055
     ],
     [
      -86.905449,
      36.2055
     ]
    ]
   }
  }
 ]
}